{
  "type": "FeatureCollection",
  "features": [
    {
      "type": "Feature",
      "properties": {
        "norad_id": 2807,
        "name": "OPS 7218 (TRANSIT 16)",
        "group": "nnss",
        "lat": 9.054926293490135,
        "lon": 173.70009900482256,
        "alt_km": 1067.8408495879576,
        "timestamp": "2025-12-20T16:47:36.555070+00:00",
        "meta_object_name": "OPS 7218 (TRANSIT 16)",
        "meta_object_id": "1967-048A",
        "meta_epoch": "2025-12-20T11:25:50.128032",
        "meta_mean_motion": 13.5072386,
        "meta_eccentricity": 0.0022147,
        "meta_inclination": 89.6731,
        "meta_ra_of_asc_node": 353.7596,
        "meta_arg_of_pericenter": 93.4595,
        "meta_mean_anomaly": 71.2031,
        "meta_ephemeris_type": 0,
        "meta_classification_type": "U",
        "meta_norad_cat_id": 2807,
        "meta_element_set_no": 999,
        "meta_rev_at_epoch": 88380,
        "meta_bstar": 0.00015222,
        "meta_mean_motion_dot": 1.09e-06,
        "meta_mean_motion_ddot": 0,
        "tle_line1": "1 02807U 67048A   25354.47627463  .00000109  00000+0  15222-3 0  9994",
        "tle_line2": "2 02807  89.6731 353.7596 0022147  93.4595  71.2031 13.50723860883808"
      },
      "geometry": {
        "type": "Point",
        "coordinates": [
          173.70009900482256,
          9.054926293490135
        ]
      }
    },
    {
      "type": "Feature",
      "properties": {
        "norad_id": 2965,
        "name": "OPS 4947 (TRANSIT 17)",
        "group": "nnss",
        "lat": -46.306716507861225,
        "lon": 23.04171905588301,
        "alt_km": 1074.023272380825,
        "timestamp": "2025-12-20T16:47:36.555092+00:00",
        "meta_object_name": "OPS 4947 (TRANSIT 17)",
        "meta_object_id": "1967-092A",
        "meta_epoch": "2025-12-20T03:07:42.632256",
        "meta_mean_motion": 13.53455414,
        "meta_eccentricity": 0.00466956,
        "meta_inclination": 89.2488,
        "meta_ra_of_asc_node": 23.8719,
        "meta_arg_of_pericenter": 212.481,
        "meta_mean_anomaly": 208.1838,
        "meta_ephemeris_type": 0,
        "meta_classification_type": "U",
        "meta_norad_cat_id": 2965,
        "meta_element_set_no": 999,
        "meta_rev_at_epoch": 87197,
        "meta_bstar": 0.00019201817,
        "meta_mean_motion_dot": 1.41e-06,
        "meta_mean_motion_ddot": 0,
        "tle_line1": "1 02965U 67092A   25354.13035454  .00000141  00000+0  19202-3 0  9992",
        "tle_line2": "2 02965  89.2488  23.8719 0046695 212.4810 208.1838 13.53455414871978"
      },
      "geometry": {
        "type": "Point",
        "coordinates": [
          23.04171905588301,
          -46.306716507861225
        ]
      }
    },
    {
      "type": "Feature",
      "properties": {
        "norad_id": 3133,
        "name": "OPS 7034 (TRANSIT 18)",
        "group": "nnss",
        "lat": 47.47583233284525,
        "lon": -86.36954888243915,
        "alt_km": 1070.265620110189,
        "timestamp": "2025-12-20T16:47:36.555106+00:00",
        "meta_object_name": "OPS 7034 (TRANSIT 18)",
        "meta_object_id": "1968-012A",
        "meta_epoch": "2025-12-20T06:27:21.173184",
        "meta_mean_motion": 13.5156736,
        "meta_eccentricity": 0.0074579,
        "meta_inclination": 90.0284,
        "meta_ra_of_asc_node": 273.6602,
        "meta_arg_of_pericenter": 147.4281,
        "meta_mean_anomaly": 326.4183,
        "meta_ephemeris_type": 0,
        "meta_classification_type": "U",
        "meta_norad_cat_id": 3133,
        "meta_element_set_no": 999,
        "meta_rev_at_epoch": 57020,
        "meta_bstar": 0.000156,
        "meta_mean_motion_dot": 1.13e-06,
        "meta_mean_motion_ddot": 0,
        "tle_line1": "1 03133U 68012A   25354.26899506  .00000113  00000+0  15600-3 0  9990",
        "tle_line2": "2 03133  90.0284 273.6602 0074579 147.4281 326.4183 13.51567360570208"
      },
      "geometry": {
        "type": "Point",
        "coordinates": [
          -86.36954888243915,
          47.47583233284525
        ]
      }
    },
    {
      "type": "Feature",
      "properties": {
        "norad_id": 4507,
        "name": "NNSS 19 (TRANSIT 19)",
        "group": "nnss",
        "lat": 14.459369956862538,
        "lon": -125.46198529759864,
        "alt_km": 1097.9639467929674,
        "timestamp": "2025-12-20T16:47:36.555117+00:00",
        "meta_object_name": "NNSS 19 (TRANSIT 19)",
        "meta_object_id": "1970-067A",
        "meta_epoch": "2025-12-20T06:03:33.282720",
        "meta_mean_motion": 13.51316549,
        "meta_eccentricity": 0.0170245,
        "meta_inclination": 90.0051,
        "meta_ra_of_asc_node": 234.5391,
        "meta_arg_of_pericenter": 271.3961,
        "meta_mean_anomaly": 86.7694,
        "meta_ephemeris_type": 0,
        "meta_classification_type": "U",
        "meta_norad_cat_id": 4507,
        "meta_element_set_no": 999,
        "meta_rev_at_epoch": 72323,
        "meta_bstar": 0.00013929,
        "meta_mean_motion_dot": 1.07e-06,
        "meta_mean_motion_ddot": 0,
        "tle_line1": "1 04507U 70067A   25354.25246855  .00000107  00000+0  13929-3 0  9996",
        "tle_line2": "2 04507  90.0051 234.5391 0170245 271.3961  86.7694 13.51316549723233"
      },
      "geometry": {
        "type": "Point",
        "coordinates": [
          -125.46198529759864,
          14.459369956862538
        ]
      }
    },
    {
      "type": "Feature",
      "properties": {
        "norad_id": 6909,
        "name": "NNSS 20 (TRANSIT 20)",
        "group": "nnss",
        "lat": -60.59807782008643,
        "lon": -105.32044191008072,
        "alt_km": 1049.396709993316,
        "timestamp": "2025-12-20T16:47:36.555128+00:00",
        "meta_object_name": "NNSS 20 (TRANSIT 20)",
        "meta_object_id": "1973-081A",
        "meta_epoch": "2025-12-20T06:34:53.193792",
        "meta_mean_motion": 13.71437993,
        "meta_eccentricity": 0.015642,
        "meta_inclination": 89.8562,
        "meta_ra_of_asc_node": 254.9413,
        "meta_arg_of_pericenter": 56.0029,
        "meta_mean_anomaly": 305.5882,
        "meta_ephemeris_type": 0,
        "meta_classification_type": "U",
        "meta_norad_cat_id": 6909,
        "meta_element_set_no": 999,
        "meta_rev_at_epoch": 80464,
        "meta_bstar": 0.00024105,
        "meta_mean_motion_dot": 2.48e-06,
        "meta_mean_motion_ddot": 0,
        "tle_line1": "1 06909U 73081A   25354.27422678  .00000248  00000+0  24105-3 0  9998",
        "tle_line2": "2 06909  89.8562 254.9413 0156420  56.0029 305.5882 13.71437993804642"
      },
      "geometry": {
        "type": "Point",
        "coordinates": [
          -105.32044191008072,
          -60.59807782008643
        ]
      }
    },
    {
      "type": "Feature",
      "properties": {
        "norad_id": 10457,
        "name": "TRANSAT",
        "group": "nnss",
        "lat": -50.092194165810156,
        "lon": 77.89415735486965,
        "alt_km": 1098.6829289170582,
        "timestamp": "2025-12-20T16:47:36.555139+00:00",
        "meta_object_name": "TRANSAT",
        "meta_object_id": "1977-106A",
        "meta_epoch": "2025-12-20T04:51:30.136896",
        "meta_mean_motion": 13.48944671,
        "meta_eccentricity": 0.00261,
        "meta_inclination": 89.648,
        "meta_ra_of_asc_node": 78.3329,
        "meta_arg_of_pericenter": 168.1289,
        "meta_mean_anomaly": 248.1407,
        "meta_ephemeris_type": 0,
        "meta_classification_type": "U",
        "meta_norad_cat_id": 10457,
        "meta_element_set_no": 999,
        "meta_rev_at_epoch": 36844,
        "meta_bstar": 0.00011686,
        "meta_mean_motion_dot": 8.4e-07,
        "meta_mean_motion_ddot": 0,
        "tle_line1": "1 10457U 77106A   25354.20243214  .00000084  00000+0  11686-3 0  9991",
        "tle_line2": "2 10457  89.6480  78.3329 0026100 168.1289 248.1407 13.48944671368448"
      },
      "geometry": {
        "type": "Point",
        "coordinates": [
          77.89415735486965,
          -50.092194165810156
        ]
      }
    },
    {
      "type": "Feature",
      "properties": {
        "norad_id": 12458,
        "name": "NOVA 1",
        "group": "nnss",
        "lat": -17.15612409000506,
        "lon": -88.68172384503158,
        "alt_km": 1181.6858101206126,
        "timestamp": "2025-12-20T16:47:36.555150+00:00",
        "meta_object_name": "NOVA 1",
        "meta_object_id": "1981-044A",
        "meta_epoch": "2025-12-20T12:13:47.959104",
        "meta_mean_motion": 13.23279081,
        "meta_eccentricity": 0.0015855,
        "meta_inclination": 89.8528,
        "meta_ra_of_asc_node": 91.2755,
        "meta_arg_of_pericenter": 84.9093,
        "meta_mean_anomaly": 286.6747,
        "meta_ephemeris_type": 0,
        "meta_classification_type": "U",
        "meta_norad_cat_id": 12458,
        "meta_element_set_no": 999,
        "meta_rev_at_epoch": 15289,
        "meta_bstar": 7.1368e-05,
        "meta_mean_motion_dot": 3.9e-07,
        "meta_mean_motion_ddot": 0,
        "tle_line1": "1 12458U 81044A   25354.50958286  .00000039  00000+0  71368-4 0  9999",
        "tle_line2": "2 12458  89.8528  91.2755 0015855  84.9093 286.6747 13.23279081152899"
      },
      "geometry": {
        "type": "Point",
        "coordinates": [
          -88.68172384503158,
          -17.15612409000506
        ]
      }
    }
  ]
}